OBJECT_NAME,OBJECT_ID,EPOCH,MEAN_MOTION,ECCENTRICITY,INCLINATION,RA_OF_ASC_NODE,ARG_OF_PERICENTER,MEAN_ANOMALY,EPHEMERIS_TYPE,CLASSIFICATION_TYPE,NORAD_CAT_ID,ELEMENT_SET_NO,REV_AT_EPOCH,BSTAR,MEAN_MOTION_DOT,MEAN_MOTION_DDOT
CUBEBUG-2 (LO-74),2013-066AA,2026-06-19T14:36:26.442432,14.93780108,.00582323,97.8909,119.5969,21.2784,339.0838,0,U,39440,999,67735,.38372862E-3,.4144E-4,0
FUNCUBE-1 (AO-73),2013-066AE,2026-06-19T09:02:23.265024,15.09511616,.00358347,97.8280,141.8681,193.1795,166.8500,0,U,39444,999,67999,.3092781E-3,.4964E-4,0
UWE-3,2013-066AG,2026-06-19T11:43:01.358688,14.97040725,.00472593,97.8700,126.5771,313.4566,46.2728,0,U,39446,999,67792,.33187102E-3,.3847E-4,0
UNISAT-6,2014-033C,2026-06-19T08:26:54.773376,14.88254745,.00461593,97.7885,323.0255,62.3770,298.2123,0,U,40012,999,64648,.23171108E-3,.2126E-4,0
DUCHIFAT-1,2014-033M,2026-06-18T16:25:31.161216,15.64848252,.0002814,98.0447,229.0553,113.8680,246.2872,0,U,40021,999,65598,.89915901E-3,.88318E-3,0
QB50P1,2014-033R,2026-06-19T06:13:02.525664,15.18285787,.00080059,98.0964,181.5504,207.6997,152.3810,0,U,40025,999,65334,.33443702E-3,.6785E-4,0
LILACSAT-2,2015-049K,2026-06-19T14:15:34.777728,15.51509945,.00056572,97.4640,207.5275,233.6644,126.4086,0,U,40908,999,59612,.24156105E-3,.14195E-3,0
FOX-1A (AO-85),2015-058D,2026-06-19T13:35:03.879168,14.90978359,.01305756,64.7756,271.5912,55.6754,305.6634,0,U,40967,999,11392,.16501425E-3,.1743E-4,0
CAS-2T & KS-1Q,2016-066G,2026-06-19T10:58:01.690464,14.44701059,.03428552,98.3821,246.1674,122.6153,240.8623,0,U,41847,999,50512,.19643293E-3,.1352E-4,0
RADFXSAT (FOX-1B),2017-073E,2026-06-19T14:08:32.260992,15.12745467,.01493691,97.4695,37.7543,320.8671,38.1830,0,U,43017,999,46575,.27795465E-3,.6334E-4,0
DIWATA-2B,2018-084H,2026-06-19T13:41:42.357696,15.00460714,.00127336,98.1184,6.8817,162.5432,197.6231,0,U,43678,999,41657,.14199326E-3,.1724E-4,0
ES'HAIL 2,2018-090A,2026-06-19T12:59:59.031744,1.00272001,.0001759,0.0127,51.8972,72.3955,4.2456,0,U,43700,999,2770,0,.138E-5,0
FOX-1CLIFF (AO-95),2018-099N,2026-06-19T10:29:32.345952,15.26751310,.00077367,97.4377,230.6751,349.3383,10.7690,0,U,43770,999,41356,.36924556E-3,.9649E-4,0
ITASAT,2018-099AE,2026-06-19T14:10:34.049568,15.19081555,.00118325,97.4023,222.0545,351.8035,8.3004,0,U,43786,999,41327,.23817328E-3,.4936E-4,0
JY1SAT (JO-97),2018-099AX,2026-06-19T10:40:10.307136,15.33712469,.00044863,97.4126,233.2867,251.9162,108.1592,0,U,43803,999,41397,.45450799E-3,.14753E-3,0
UWE-4,2018-111E,2026-06-19T13:04:43.398336,15.46247682,.00050978,97.5851,99.0446,331.4843,28.6126,0,U,43880,999,41114,.56996961E-3,.28021E-3,0
TIANYAN 01,2019-093C,2026-06-19T14:27:47.187072,14.86520599,.0015041,97.7528,242.7760,79.6870,280.6041,0,U,44881,999,35177,.26833663E-4,.184E-5,0
RS-44 & BREEZE-KM R/B,2019-096E,2026-06-19T12:10:04.627200,12.79748873,.02182571,82.5220,338.1631,138.7616,223.0205,0,U,44909,999,30264,-.9791032E-5,.1E-6,0
SALSAT,2020-068K,2026-06-19T13:34:32.475360,15.29827493,.00079133,97.8853,173.7751,298.1437,61.9002,0,U,46495,999,31572,.21565431E-3,.615E-4,0
XW-3 (CAS-9),2021-131B,2026-06-19T14:57:17.548992,14.41359302,.00054102,98.4985,262.9997,91.3184,268.8625,0,U,50466,999,23546,.12466688E-3,.36E-5,0
GREENCUBE (IO-117),2022-080E,2026-06-19T08:43:01.159104,6.42583239,.00089135,70.1443,297.4882,289.1275,70.8419,0,U,53109,999,9220,0,-.3E-7,0
UMKA 1 (RS40S),2023-091G,2026-06-19T14:15:34.817472,15.20841039,.00143149,97.5046,229.2822,110.2043,250.0733,0,U,57172,999,16437,.22399927E-3,.4886E-4,0
CUBESX-HSE 3 (RS42S),2023-091N,2026-06-19T11:03:54.480672,15.31262603,.00119838,97.5086,236.0771,87.8370,272.4243,0,U,57178,999,16477,.37561378E-3,.11292E-3,0
MONITOR-3 (RS58S),2023-091Q,2026-06-19T13:20:42.791712,15.27881136,.00130642,97.5078,234.0197,93.5503,266.7230,0,U,57180,999,16465,.30910973E-3,.8359E-4,0
MONITOR-4 (RS57S),2023-091S,2026-06-19T12:50:21.926400,15.27966698,.00130626,97.5073,233.9698,93.9516,266.3217,0,U,57182,999,16465,.32545314E-3,.8828E-4,0
MONITOR-2 (RS39S),2023-091U,2026-06-19T13:15:40.418496,15.18928724,.00127707,97.5068,228.8204,103.9924,256.2731,0,U,57184,999,16431,.18285286E-3,.3756E-4,0
SVYATOBOR 1 (RS60S),2023-091X,2026-06-19T13:12:07.578144,15.26648262,.00108355,97.5084,234.3804,87.4908,272.7571,0,U,57187,999,16467,.27231661E-3,.7077E-4,0
VIZARD-METEO (RS38S),2023-091Z,2026-06-19T13:23:26.019456,15.36088134,.00081189,97.5087,240.0907,70.6523,289.5598,0,U,57189,999,16505,.39140478E-3,.13698E-3,0
POLYTECH-UNIVERSE 3 (RS46S),2023-091AB,2026-06-19T13:54:23.598720,15.19131550,.00169829,97.5043,228.3515,119.1976,241.0960,0,U,57191,999,16431,.20309814E-3,.4212E-4,0
UTMN 2 (RS27S),2023-091AP,2026-06-19T13:01:29.658432,15.32099362,.00091469,97.5083,237.7966,76.7848,283.4414,0,U,57203,999,16490,.33536925E-3,.1033E-3,0
